NORAD_CAT_ID,OBJECT_NAME,OBJECT_TYPE,EPOCH,MEAN_MOTION,ECCENTRICITY,INCLINATION,RA_OF_ASC_NODE,ARG_OF_PERICENTER,MEAN_ANOMALY,BSTAR,MEAN_MOTION_DOT,MEAN_MOTION_DDOT,TLE_LINE0,TLE_LINE1,TLE_LINE2,SEMIMAJOR_AXIS,PERIOD,APOGEE,PERIGEE,DECAYED
52867.0,STARLINK-4126,PAYLOAD,2022-12-03 12:36:35,15.08833947,0.0003138,53.2191,335.9653,29.3317,330.785,-1.8835e-05,-5.88e-06,0.0,0 STARLINK-4126,1 52867U 22062AP  22337.52540994 -.00000588  00000-0 -18835-4 0  9997,2 52867  53.2191 335.9653 0003138  29.3317 330.7850 15.08833947 26445,6917.899,95.438,541.935,537.5930000000002,0.0
52867.0,STARLINK-4126,PAYLOAD,2022-12-04 09:16:36,15.08837184,0.0003067,53.2189,332.0993,31.6851,328.4325,6.1932e-06,-1.9e-06,0.0,0 STARLINK-4126,1 52867U 22062AP  22338.38653011 -.00000190  00000-0  61932-5 0  9992,2 52867  53.2189 332.0993 0003067  31.6851 328.4325 15.08837184 26085,6917.889,95.438,541.876,537.632,0.0
52867.0,STARLINK-4126,PAYLOAD,2022-12-04 17:13:31,15.08842736,0.0003191999999999,53.2191,330.6127,33.6577,326.4618,6.2362e-05,7.04e-06,0.0,0 STARLINK-4126,1 52867U 22062AP  22338.71772552  .00000704  00000-0  62362-4 0  9998,2 52867  53.2191 330.6127 0003192  33.6577 326.4618 15.08842736 26629,6917.871999999999,95.437,541.945,537.529,0.0
52867.0,STARLINK-4126,PAYLOAD,2022-12-05 09:07:22,15.08842627,0.0003103,53.2187,327.6393,31.9149,328.2031,6.0379e-05,6.72e-06,0.0,0 STARLINK-4126,1 52867U 22062AP  22339.38012568  .00000672  00000-0  60379-4 0  9996,2 52867  53.2187 327.6393 0003103  31.9149 328.2031 15.08842627 26238,6917.871999999999,95.437,541.884,537.591,0.0
52867.0,STARLINK-4126,PAYLOAD,2022-12-06 02:36:36,15.0884603,0.0003112,53.2193,324.3684,31.1358,328.9818,0.00011478,1.539e-05,0.0,0 STARLINK-4126,1 52867U 22062AP  22340.10876151  .00001539  00000-0  11478-3 0  9992,2 52867  53.2193 324.3684 0003112  31.1358 328.9818 15.08846030 26834,6917.861999999999,95.437,541.88,537.5740000000002,0.0
52867.0,STARLINK-4126,PAYLOAD,2022-12-06 08:58:09,15.08843563,0.0003145,53.2193,323.1793,31.5148,328.6032,8.751100000000001e-05,1.105e-05,0.0,0 STARLINK-4126,1 52867U 22062AP  22340.37372324  .00001105  00000-0  87511-4 0  9995,2 52867  53.2193 323.1793 0003145  31.5148 328.6032 15.08843563 26382,6917.869000000002,95.437,541.91,537.559,0.0
52867.0,STARLINK-4126,PAYLOAD,2022-12-06 23:16:38,15.08832339,0.0003031,53.2188,320.5024,31.9026,328.215,-3.7038e-05,-8.78e-06,0.0,0 STARLINK-4126,1 52867U 22062AP  22340.96989401 -.00000878  00000-0 -37038-4 0  9997,2 52867  53.2188 320.5024 0003031  31.9026 328.2150 15.08832339 26967,6917.904,95.438,541.866,537.672,0.0
52867.0,STARLINK-4126,PAYLOAD,2022-12-07 15:10:30,15.08838759,0.0003123999999999,53.2189,317.5291,30.0211,330.096,-1.5563e-05,-5.36e-06,0.0,0 STARLINK-4126,1 52867U 22062AP  22341.63229181 -.00000536  00000-0 -15563-4 0  9994,2 52867  53.2189 317.5291 0003124  30.0211 330.0960 15.08838759 27063,6917.884,95.438,541.91,537.5880000000002,0.0
52867.0,STARLINK-4126,PAYLOAD,2022-12-08 08:39:43,15.08851155,0.0003141,53.2198,314.2589,33.2679,326.851,0.00010751,1.423e-05,0.0,0 STARLINK-4126,1 52867U 22062AP  22342.36092076  .00001423  00000-0  10751-3 0  9993,2 52867  53.2198 314.2589 0003141  33.2679 326.8510 15.08851155 26685,6917.846,95.437,541.884,537.538,0.0
52867.0,STARLINK-4126,PAYLOAD,2022-12-08 15:01:15,15.08856871,0.0003165,53.2189,313.0707,32.0156,328.1028,0.00018733,2.695e-05,0.0,0 STARLINK-4126,1 52867U 22062AP  22342.62587345  .00002695  00000-0  18733-3 0  9990,2 52867  53.2189 313.0707 0003165  32.0156 328.1028 15.08856871 27216,6917.829000000002,95.436,541.883,537.504,0.0
52867.0,STARLINK-4126,PAYLOAD,2022-12-09 06:55:00,15.08936926,0.0002084,53.2187,310.0992,9.4954,350.6077,0.00076303,0.00011909,0.0,0 STARLINK-4126,1 52867U 22062AP  22343.28820410  .00011909  00000-0  76303-3 0  9991,2 52867  53.2187 310.0992 0002084   9.4954 350.6077 15.08936926 27315,6917.584,95.431,540.891,538.008,0.0
52867.0,STARLINK-4126,PAYLOAD,2022-12-10 05:10:25,15.08936096,0.0002782,53.219,305.9358,19.9307,340.1793,0.00084806,0.0001327,0.0,0 STARLINK-4126,1 52867U 22062AP  22344.21557495  .00013270  00000-0  84806-3 0  9995,2 52867  53.2190 305.9358 0002782  19.9307 340.1793 15.08936096 27453,6917.587,95.431,541.376,537.5269999999998,0.0
52867.0,STARLINK-4126,PAYLOAD,2022-12-10 09:56:41,15.08848839,0.0002636,53.2189,305.0435,29.6228,330.4913,8.9829e-05,1.142e-05,0.0,0 STARLINK-4126,1 52867U 22062AP  22344.41436832  .00001142  00000-0  89829-4 0  9994,2 52867  53.2189 305.0435 0002636  29.6228 330.4913 15.08848839 27482,6917.853,95.437,541.5419999999998,537.895,0.0
52867.0,STARLINK-4126,PAYLOAD,2022-12-11 05:01:19,15.08838519,0.0002704,53.2188,301.4732,29.85,330.2646,3.816e-06,-2.28e-06,0.0,0 STARLINK-4126,1 52867U 22062AP  22345.20925353 -.00000228  00000-0  38160-5 0  9991,2 52867  53.2188 301.4732 0002704  29.8500 330.2646 15.08838519 27601,6917.885,95.438,541.621,537.879,0.0
52867.0,STARLINK-4126,PAYLOAD,2022-12-11 06:36:42,15.08842288,0.0003123,53.2186,301.1757,29.6851,330.4318,-6.9335e-05,-1.392e-05,0.0,0 STARLINK-4126,1 52867U 22062AP  22345.27549519 -.00001392  00000-0 -69335-4 0  9995,2 52867  53.2186 301.1757 0003123  29.6851 330.4318 15.08842288 27129,6917.873000000001,95.437,541.899,537.578,0.0
52867.0,STARLINK-4126,PAYLOAD,2022-12-12 03:16:43,15.08836104,0.0002744,53.2185,297.308,28.1713,331.9427,0.00027036,4.017e-05,0.0,0 STARLINK-4126,1 52867U 22062AP  22346.13661494  .00004017  00000-0  27036-3 0  9994,2 52867  53.2185 297.3080 0002744  28.1713 331.9427 15.08836104 27253,6917.892,95.438,541.656,537.859,0.0
52867.0,STARLINK-4126,PAYLOAD,2022-12-13 03:07:30,15.08844341,0.0002786,53.2187,292.8481,29.7856,330.3294,0.00011131,1.484e-05,0.0,0 STARLINK-4126,1 52867U 22062AP  22347.13021148  .00001484  00000-0  11131-3 0  9995,2 52867  53.2187 292.8481 0002786  29.7856 330.3294 15.08844341 27898,6917.8669999999975,95.437,541.659,537.805,0.0
52867.0,STARLINK-4126,PAYLOAD,2022-12-13 06:18:16,15.08838986,0.0002885,53.2187,292.2555,23.6429,336.4696,5.7285e-05,6.23e-06,0.0,0 STARLINK-4126,1 52867U 22062AP  22347.26269667  .00000623  00000-0  57285-4 0  9994,2 52867  53.2187 292.2555 0002885  23.6429 336.4696 15.08838986 27917,6917.8830000000025,95.438,541.744,537.753,0.0
52867.0,STARLINK-4126,PAYLOAD,2022-12-14 06:09:04,15.08840867,0.0002871,53.2186,287.7943,25.6972,334.4162,2.8942e-06,-2.43e-06,0.0,0 STARLINK-4126,1 52867U 22062AP  22348.25629759 -.00000243  00000-0  28942-5 0  9994,2 52867  53.2186 287.7943 0002871  25.6972 334.4162 15.08840867 27575,6917.878000000002,95.437,541.729,537.757,0.0
52867.0,STARLINK-4126,PAYLOAD,2022-12-15 05:59:51,15.08833488,0.0002881,53.2184,283.334,23.3909,336.7214,3.2512e-05,2.29e-06,0.0,0 STARLINK-4126,1 52867U 22062AP  22349.24990264  .00000229  00000-0  32512-4 0  9996,2 52867  53.2184 283.3340 0002881  23.3909 336.7214 15.08833488 28218,6917.9,95.438,541.758,537.7719999999998,0.0
52867.0,STARLINK-4126,PAYLOAD,2022-12-15 12:21:23,15.08837425,0.0002876,53.2186,282.1447,24.2086,335.9041,0.00010688,1.413e-05,0.0,0 STARLINK-4126,1 52867U 22062AP  22349.51485895  .00001413  00000-0  10688-3 0  9990,2 52867  53.2186 282.1447 0002876  24.2086 335.9041 15.08837425 27768,6917.888000000001,95.438,541.743,537.764,0.0
52867.0,STARLINK-4126,PAYLOAD,2022-12-15 20:18:19,15.08837751,0.0002809,53.2184,280.6586,24.91,335.2028,9.3052e-05,1.193e-05,0.0,0 STARLINK-4126,1 52867U 22062AP  22349.84605995  .00001193  00000-0  93052-4 0  9993,2 52867  53.2184 280.6586 0002809  24.9100 335.2028 15.08837751 27819,6917.887,95.438,541.695,537.809,0.0
52867.0,STARLINK-4126,PAYLOAD,2022-12-16 01:04:28,15.08839873,0.0002865,53.2185,279.7656,22.7288,337.3831,0.00010235,1.341e-05,0.0,0 STARLINK-4126,1 52867U 22062AP  22350.04477803  .00001341  00000-0  10235-3 0  9998,2 52867  53.2185 279.7656 0002865  22.7288 337.3831 15.08839873 28332,6917.880999999999,95.438,541.7280000000002,537.764,0.0
52867.0,STARLINK-4126,PAYLOAD,2022-12-16 12:12:11,15.08834042,0.000285,53.2176,277.685,23.7173,336.395,-5.6589e-06,-3.79e-06,0.0,0 STARLINK-4126,1 52867U 22062AP  22350.50846572 -.00000379  00000-0 -56589-5 0  9998,2 52867  53.2176 277.6850 0002850  23.7173 336.3950 15.08834042 28405,6917.899,95.438,541.735,537.7919999999998,0.0
52867.0,STARLINK-4126,PAYLOAD,2022-12-16 20:09:06,15.08837751,0.0002921,53.2183,276.197,19.8186,340.2919,0.00012903,1.766e-05,0.0,0 STARLINK-4126,1 52867U 22062AP  22350.83966020  .00001766  00000-0  12903-3 0  9994,2 52867  53.2183 276.1970 0002921  19.8186 340.2919 15.08837751 27968,6917.887,95.438,541.773,537.732,0.0
52867.0,STARLINK-4126,PAYLOAD,2022-12-17 04:06:01,15.08849899,0.0002878999999999,53.2172,274.7103,21.7036,338.4078,0.00025514,3.776e-05,0.0,0 STARLINK-4126,1 52867U 22062AP  22351.17085309  .00003776  00000-0  25514-3 0  9999,2 52867  53.2172 274.7103 0002879  21.7036 338.4078 15.08849899 28508,6917.85,95.437,541.707,537.7230000000002,0.0
52867.0,STARLINK-4126,PAYLOAD,2022-12-17 12:02:57,15.08846546,0.000289,53.2178,273.2239,26.1038,334.01,0.00013587,1.875e-05,0.0,0 STARLINK-4126,1 52867U 22062AP  22351.50205465  .00001875  00000-0  13587-3 0  9998,2 52867  53.2178 273.2239 0002890  26.1038 334.0100 15.08846546 28067,6917.86,95.437,541.725,537.726,0.0
52867.0,STARLINK-4126,PAYLOAD,2022-12-17 15:13:43,15.08841805,0.0002973,53.2168,272.629,23.9341,336.1789,1.6651e-05,-2.4e-07,0.0,0 STARLINK-4126,1 52867U 22062AP  22351.63453591 -.00000024  00000-0  16651-4 0  9999,2 52867  53.2168 272.6290 0002973  23.9341 336.1789 15.08841805 28575,6917.875,95.437,541.797,537.683,0.0
52867.0,STARLINK-4126,PAYLOAD,2022-12-18 11:53:44,15.08836437,0.0002961,53.2172,268.7635,26.0425,334.0715,1.8969e-05,1.3e-07,0.0,0 STARLINK-4126,1 52867U 22062AP  22352.49565932  .00000013  00000-0  18969-4 0  9998,2 52867  53.2172 268.7635 0002961  26.0425 334.0715 15.08836437 28215,6917.891,95.438,541.805,537.7080000000002,0.0
